[{"OBJECT_NAME":"STARLINK-3664","OBJECT_ID":"2022-025AE","EPOCH":"2026-03-09T21:56:41.615520","MEAN_MOTION":15.08841974,"ECCENTRICITY":0.00011512,"INCLINATION":53.218,"RA_OF_ASC_NODE":38.2001,"ARG_OF_PERICENTER":81.8095,"MEAN_ANOMALY":278.3028,"EPHEMERIS_TYPE":0,"CLASSIFICATION_TYPE":"U","NORAD_CAT_ID":51984,"ELEMENT_SET_NO":999,"REV_AT_EPOCH":22109,"BSTAR":3.564954e-5,"MEAN_MOTION_DOT":2.8e-6,"MEAN_MOTION_DDOT":0},{"OBJECT_NAME":"CZ-6A DEB","OBJECT_ID":"2024-140AAU","EPOCH":"2026-03-09T16:48:50.985504","MEAN_MOTION":14.99127941,"ECCENTRICITY":0.00591225,"INCLINATION":89.196,"RA_OF_ASC_NODE":296.0099,"ARG_OF_PERICENTER":104.8686,"MEAN_ANOMALY":255.9106,"EPHEMERIS_TYPE":0,"CLASSIFICATION_TYPE":"U","NORAD_CAT_ID":61486,"ELEMENT_SET_NO":999,"REV_AT_EPOCH":8015,"BSTAR":0.0049724997,"MEAN_MOTION_DOT":0.00063139,"MEAN_MOTION_DDOT":0}]
